UNKNOWN                 
1 82139U          25359.15395150  .00002250  00000+0  11379-2 0  9997
2 82139  99.0232  67.1786 0081655   8.1010 352.1461 14.15477713481870
UNKNOWN                 
1 82162U          25359.51259436  .00004304  00000+0  64155-2 0  9991
2 82162 100.4766 284.7391 0044589 206.7138 153.1698 13.53657455506037
UNKNOWN                 
1 82189U          25357.79874616  .00000257  00000+0  98736-4 0  9998
2 82189  74.0350  28.0400 0017259 220.6315 139.3551 14.35217373634002
UNKNOWN                 
1 82199U          25354.43125979  .00000476  00000+0  39986-3 0  9992
2 82199  82.9660 228.0994 0038329  14.8946 166.2397 13.85785465610758
UNKNOWN                 
1 82223U          25347.47905740  .00003983  00000+0  21575-2 0  9998
2 82223  99.3186 233.4630 0069943 343.8875  16.0071 14.11844014448891
UNKNOWN                 
1 82250U          25350.21638612  .00002424  00000+0  12738-2 0  9995
2 82250  98.9085 255.6660 0069566 181.7920 333.3704 14.13817190617123
UNKNOWN                 
1 82272U          25357.90115952  .00000312  00000+0  11074-2 0  9995
2 82272  67.5225 180.5225 0753283  99.2053 269.4875 12.33563555273314
UNKNOWN                 
1 82295U          25346.72562200  .00002770  00000+0  98631-3 0  9995
2 82295  66.6173 148.2102 0127087 223.3779 135.7264 14.31337782579720
